{"type": "FeatureCollection", "features": [ {"type": "Feature", "properties": {"norad_id": 37834, "name": "INTELSAT 18 (IS-18)", "group": "intelsat", "lat": -0.004636786571226851, "lon": -34.5855725098572, "alt_km": 35783.45616727914, "timestamp": "2025-12-03T04:52:29.309190+00:00", "meta": {"OBJECT_NAME": "INTELSAT 18 (IS-18)", "OBJECT_ID": "2011-056A", "EPOCH": "2025-12-02T14:38:27.602880", "MEAN_MOTION": 1.00271068, "ECCENTRICITY": 0.0002135, "INCLINATION": 0.0103, "RA_OF_ASC_NODE": 349.7892, "ARG_OF_PERICENTER": 263.574, "MEAN_ANOMALY": 217.9638, "EPHEMERIS_TYPE": 0, "CLASSIFICATION_TYPE": "U", "NORAD_CAT_ID": 37834, "ELEMENT_SET_NO": 999, "REV_AT_EPOCH": 5184, "BSTAR": 0, "MEAN_MOTION_DOT": 7.3e-07, "MEAN_MOTION_DDOT": 0}, "tle": {"line1": "1 37834U 11056A   25336.61004170  .00000073  00000+0  00000+0 0  9994", "line2": "2 37834   0.0103 349.7892 0002135 263.5740 217.9638  1.00271068 51840"}}, "geometry": {"type": "Point", "coordinates": [-34.5855725098572, -0.004636786571226851]}}, {"type": "Feature", "properties": {"norad_id": 38098, "name": "INTELSAT 22 (IS-22)", "group": "intelsat", "lat": -0.019642755975707225, "lon": -142.51429726399996, "alt_km": 35780.74343697293, "timestamp": "2025-12-03T04:52:29.309203+00:00", "meta": {"OBJECT_NAME": "INTELSAT 22 (IS-22)", "OBJECT_ID": "2012-011A", "EPOCH": "2025-12-02T19:51:45.822816", "MEAN_MOTION": 1.00271133, "ECCENTRICITY": 0.0001707, "INCLINATION": 0.0028, "RA_OF_ASC_NODE": 356.3094, "ARG_OF_PERICENTER": 261.5152, "MEAN_ANOMALY": 184.1497, "EPHEMERIS_TYPE": 0, "CLASSIFICATION_TYPE": "U", "NORAD_CAT_ID": 38098, "ELEMENT_SET_NO": 999, "REV_AT_EPOCH": 521, "BSTAR": 0, "MEAN_MOTION_DOT": -3.9e-07, "MEAN_MOTION_DDOT": 0}, "tle": {"line1": "1 38098U 12011A   25336.82761369 -.00000039  00000+0  00000+0 0  9995", "line2": "2 38098   0.0028 356.3094 0001707 261.5152 184.1497  1.00271133  5217"}}, "geometry": {"type": "Point", "coordinates": [-142.51429726399996, -0.019642755975707225]}}, {"type": "Feature", "properties": {"norad_id": 38356, "name": "INTELSAT 19 (IS-19)", "group": "intelsat", "lat": -0.0029669741792843667, "lon": -48.556111435566706, "alt_km": 35777.56466638071, "timestamp": "2025-12-03T04:52:29.309215+00:00", "meta": {"OBJECT_NAME": "INTELSAT 19 (IS-19)", "OBJECT_ID": "2012-030A", "EPOCH": "2025-12-02T16:17:59.421408", "MEAN_MOTION": 1.0027165, "ECCENTRICITY": 0.0003447, "INCLINATION": 0.01, "RA_OF_ASC_NODE": 317.5446, "ARG_OF_PERICENTER": 299.7965, "MEAN_ANOMALY": 224.9562, "EPHEMERIS_TYPE": 0, "CLASSIFICATION_TYPE": "U", "NORAD_CAT_ID": 38356, "ELEMENT_SET_NO": 999, "REV_AT_EPOCH": 4848, "BSTAR": 0, "MEAN_MOTION_DOT": -3.6e-07, "MEAN_MOTION_DDOT": 0}, "tle": {"line1": "1 38356U 12030A   25336.67915997 -.00000036  00000+0  00000+0 0  9991", "line2": "2 38356   0.0100 317.5446 0003447 299.7965 224.9562  1.00271650 48489"}}, "geometry": {"type": "Point", "coordinates": [-48.556111435566706, -0.0029669741792843667]}}, {"type": "Feature", "properties": {"norad_id": 38740, "name": "INTELSAT 20 (IS-20)", "group": "intelsat", "lat": -0.033641197533788, "lon": -146.1243525939579, "alt_km": 35775.07084332436, "timestamp": "2025-12-03T04:52:29.309227+00:00", "meta": {"OBJECT_NAME": "INTELSAT 20 (IS-20)", "OBJECT_ID": "2012-043A", "EPOCH": "2025-12-02T00:24:39.918816", "MEAN_MOTION": 1.00268447, "ECCENTRICITY": 0.00030847, "INCLINATION": 0.0115, "RA_OF_ASC_NODE": 324.2147, "ARG_OF_PERICENTER": 225.9347, "MEAN_ANOMALY": 315.6275, "EPHEMERIS_TYPE": 0, "CLASSIFICATION_TYPE": "U", "NORAD_CAT_ID": 38740, "ELEMENT_SET_NO": 999, "REV_AT_EPOCH": 4877, "BSTAR": 0, "MEAN_MOTION_DOT": 0, "MEAN_MOTION_DDOT": 0}, "tle": {"line1": "1 38740U 12043A   25336.01712869  .00000000  00000+0  00000+0 0  9993", "line2": "2 38740   0.0115 324.2147 0003084 225.9347 315.6275  1.00268447 48778"}}, "geometry": {"type": "Point", "coordinates": [-146.1243525939579, -0.033641197533788]}}, {"type": "Feature", "properties": {"norad_id": 38749, "name": "INTELSAT 21 (IS-21)", "group": "intelsat", "lat": 0.031655956319648175, "lon": 87.38109046325256, "alt_km": 35796.20440168526, "timestamp": "2025-12-03T04:52:29.309239+00:00", "meta": {"OBJECT_NAME": "INTELSAT 21 (IS-21)", "OBJECT_ID": "2012-045A", "EPOCH": "2025-12-02T19:49:38.654112", "MEAN_MOTION": 1.00268831, "ECCENTRICITY": 0.0002406, "INCLINATION": 0.0159, "RA_OF_ASC_NODE": 320.5872, "ARG_OF_PERICENTER": 281.885, "MEAN_ANOMALY": 68.8684, "EPHEMERIS_TYPE": 0, "CLASSIFICATION_TYPE": "U", "NORAD_CAT_ID": 38749, "ELEMENT_SET_NO": 999, "REV_AT_EPOCH": 4855, "BSTAR": 0, "MEAN_MOTION_DOT": -2.65e-06, "MEAN_MOTION_DDOT": 0}, "tle": {"line1": "1 38749U 12045A   25336.82614183 -.00000265  00000+0  00000+0 0  9997", "line2": "2 38749   0.0159 320.5872 0002406 281.8850  68.8684  1.00268831 48550"}}, "geometry": {"type": "Point", "coordinates": [87.38109046325256, 0.031655956319648175]}}, {"type": "Feature", "properties": {"norad_id": 38867, "name": "INTELSAT 23 (IS-23)", "group": "intelsat", "lat": 0.021364063838056443, "lon": 92.37334489118187, "alt_km": 35790.5190640696, "timestamp": "2025-12-03T04:52:29.309251+00:00", "meta": {"OBJECT_NAME": "INTELSAT 23 (IS-23)", "OBJECT_ID": "2012-057A", "EPOCH": "2025-12-02T16:57:18.193248", "MEAN_MOTION": 1.00270277, "ECCENTRICITY": 0.0001767, "INCLINATION": 0.0453, "RA_OF_ASC_NODE": 121.8894, "ARG_OF_PERICENTER": 92.2124, "MEAN_ANOMALY": 59.032, "EPHEMERIS_TYPE": 0, "CLASSIFICATION_TYPE": "U", "NORAD_CAT_ID": 38867, "ELEMENT_SET_NO": 999, "REV_AT_EPOCH": 4798, "BSTAR": 0, "MEAN_MOTION_DOT": -2.64e-06, "MEAN_MOTION_DDOT": 0}, "tle": {"line1": "1 38867U 12057A   25336.70646057 -.00000264  00000+0  00000+0 0  9992", "line2": "2 38867   0.0453 121.8894 0001767  92.2124  59.0320  1.00270277 47983"}}, "geometry": {"type": "Point", "coordinates": [92.37334489118187, 0.021364063838056443]}}, {"type": "Feature", "properties": {"norad_id": 39360, "name": "FM-6", "group": "intelsat", "lat": -0.015486705616609671, "lon": 29.217920010312003, "alt_km": 35796.2291072077, "timestamp": "2025-12-03T04:52:29.309263+00:00", "meta": {"OBJECT_NAME": "FM-6", "OBJECT_ID": "2013-058A", "EPOCH": "2025-12-02T10:37:38.767584", "MEAN_MOTION": 1.00270976, "ECCENTRICITY": 0.00029282, "INCLINATION": 0.006, "RA_OF_ASC_NODE": 110.7073, "ARG_OF_PERICENTER": 62.3341, "MEAN_ANOMALY": 301.7644, "EPHEMERIS_TYPE": 0, "CLASSIFICATION_TYPE": "U", "NORAD_CAT_ID": 39360, "ELEMENT_SET_NO": 999, "REV_AT_EPOCH": 4410, "BSTAR": 0, "MEAN_MOTION_DOT": 4e-08, "MEAN_MOTION_DDOT": 0}, "tle": {"line1": "1 39360U 13058A   25336.44280981  .00000004  00000+0  00000+0 0  9995", "line2": "2 39360   0.0060 110.7073 0002928  62.3341 301.7644  1.00270976 44104"}}, "geometry": {"type": "Point", "coordinates": [29.217920010312003, -0.015486705616609671]}}, {"type": "Feature", "properties": {"norad_id": 40271, "name": "INTELSAT 30 (IS-30)", "group": "intelsat", "lat": 0.029138569157940525, "lon": 50.33516081217384, "alt_km": 35782.146383846884, "timestamp": "2025-12-03T04:52:29.309276+00:00", "meta": {"OBJECT_NAME": "INTELSAT 30 (IS-30)", "OBJECT_ID": "2014-062A", "EPOCH": "2025-12-02T13:19:57.625248", "MEAN_MOTION": 1.00270094, "ECCENTRICITY": 0.00012173, "INCLINATION": 0.0127, "RA_OF_ASC_NODE": 359.7494, "ARG_OF_PERICENTER": 81.4309, "MEAN_ANOMALY": 95.422, "EPHEMERIS_TYPE": 0, "CLASSIFICATION_TYPE": "U", "NORAD_CAT_ID": 40271, "ELEMENT_SET_NO": 999, "REV_AT_EPOCH": 481, "BSTAR": 0, "MEAN_MOTION_DOT": -1.3e-06, "MEAN_MOTION_DDOT": 0}, "tle": {"line1": "1 40271U 14062A   25336.55552807 -.00000130  00000+0  00000+0 0  9996", "line2": "2 40271   0.0127 359.7494 0001217  81.4309  95.4220  1.00270094  4811"}}, "geometry": {"type": "Point", "coordinates": [50.33516081217384, 0.029138569157940525]}}, {"type": "Feature", "properties": {"norad_id": 40333, "name": "DIRECTV 14", "group": "intelsat", "lat": 0.033486779303152615, "lon": 46.16843920383859, "alt_km": 35787.97802980434, "timestamp": "2025-12-03T04:52:29.309287+00:00", "meta": {"OBJECT_NAME": "DIRECTV 14", "OBJECT_ID": "2014-078B", "EPOCH": "2025-12-02T08:59:15.226656", "MEAN_MOTION": 1.00270629, "ECCENTRICITY": 3.721e-05, "INCLINATION": 0.0093, "RA_OF_ASC_NODE": 318.2125, "ARG_OF_PERICENTER": 276.9162, "MEAN_ANOMALY": 231.9434, "EPHEMERIS_TYPE": 0, "CLASSIFICATION_TYPE": "U", "NORAD_CAT_ID": 40333, "ELEMENT_SET_NO": 999, "REV_AT_EPOCH": 4007, "BSTAR": 0, "MEAN_MOTION_DOT": -1.05e-06, "MEAN_MOTION_DDOT": 0}, "tle": {"line1": "1 40333U 14078B   25336.37448179 -.00000105  00000+0  00000+0 0  9990", "line2": "2 40333   0.0093 318.2125 0000372 276.9162 231.9434  1.00270629 40078"}}, "geometry": {"type": "Point", "coordinates": [46.16843920383859, 0.033486779303152615]}}, {"type": "Feature", "properties": {"norad_id": 40663, "name": "DIRECTV 15", "group": "intelsat", "lat": 0.008963664914360072, "lon": 42.51941407279876, "alt_km": 35787.38421285886, "timestamp": "2025-12-03T04:52:29.309299+00:00", "meta": {"OBJECT_NAME": "DIRECTV 15", "OBJECT_ID": "2015-026A", "EPOCH": "2025-12-02T15:00:23.376384", "MEAN_MOTION": 1.00270418, "ECCENTRICITY": 2.99e-05, "INCLINATION": 0.0433, "RA_OF_ASC_NODE": 100.4968, "ARG_OF_PERICENTER": 166.0499, "MEAN_ANOMALY": 287.4051, "EPHEMERIS_TYPE": 0, "CLASSIFICATION_TYPE": "U", "NORAD_CAT_ID": 40663, "ELEMENT_SET_NO": 999, "REV_AT_EPOCH": 3849, "BSTAR": 0, "MEAN_MOTION_DOT": -8.2e-07, "MEAN_MOTION_DDOT": 0}, "tle": {"line1": "1 40663U 15026A   25336.62527056 -.00000082  00000+0  00000+0 0  9994", "line2": "2 40663   0.0433 100.4968 0000299 166.0499 287.4051  1.00270418 38498"}}, "geometry": {"type": "Point", "coordinates": [42.51941407279876, 0.008963664914360072]}}]}